2026-106A               
1 69097U 26106A   26165.29933962  .00006717  00000+0  40306-3 0  9995
2 69097  97.5103 247.4353 0014719 170.8521 189.2980 15.11165208  4542
2026-106B               
1 69098U 26106B   26165.24792271  .00004792  00000+0  30084-3 0  9990
2 69098  97.5081 247.3444 0015116 167.1094 193.0525 15.09656737  4530
2026-106C               
1 69099U 26106C   26165.29853709  .00006735  00000+0  40371-3 0  9999
2 69099  97.5106 247.4378 0014488 171.5823 188.5653 15.11207723  4548
2026-106D               
1 69100U 26106D   26165.29615606  .00001533  00000+0  94749-4 0  9994
2 69100  97.5075 247.4320 0014191 173.9681 186.1723 15.11267757  4547
2026-106E               
1 69101U 26106E   26165.29086584  .00007784  00000+0  46224-3 0  9990
2 69101  97.5085 247.4394 0016659 174.8475 185.2930 15.11469499  4549
DRAGON CRS-34           
1 69103U 26107A   26165.09325831  .00008623  00000+0  16324-3 0  9993
2 69103  51.6335 315.4063 0004935 183.6835 176.4118 15.49219019570765
QIANFAN-145             
1 69104U 26108A   26164.82363916 -.02073940  00000+0 -13825+1 0  9999
2 69104  89.0101  22.5972 0014257 132.4130 227.8260 14.05311278  3867
QIANFAN-146             
1 69105U 26108B   26164.86735897 -.01695440  00000+0 -10278+1 0  9998
2 69105  89.0108  22.5681 0018615 104.6869 255.6381 14.10364472  3889
QIANFAN-147             
1 69106U 26108C   26164.87423806 -.01960672  00000+0 -12706+1 0  9994
2 69106  89.0102  22.5866 0015221 116.8314 243.4427 14.06641037  3874
QIANFAN-148             
1 69107U 26108D   26164.86857407 -.01910359  00000+0 -12659+1 0  9996
2 69107  89.0102  22.5860 0018573 134.0513 226.2203 14.05274529  3873
QIANFAN-149             
1 69108U 26108E   26165.00926997  .00000067  00000+0  30668-4 0  9992
2 69108  89.0113  22.5707 0016553 122.2975 237.9815 14.09076243  3890
QIANFAN-150             
1 69109U 26108F   26164.85287997 -.02078177  00000+0 -13293+1 0  9997
2 69109  89.0107  22.5843 0016098 112.1765 248.1129 14.07598512  3870
QIANFAN-151             
1 69110U 26108G   26164.84741773 -.01930369  00000+0 -12621+1 0  9998
2 69110  89.0114  22.5830 0016149 128.9940 231.2683 14.06080708  3873
QIANFAN-152             
1 69111U 26108H   26164.83687259 -.01893806  00000+0 -12009+1 0  9990
2 69111  89.0106  22.5818 0017010 119.1577 241.1311 14.07695038  3874
QIANFAN-153             
1 69112U 26108J   26164.83202826 -.01813846  00000+0 -11764+1 0  9997
2 69112  89.0102  22.5801 0016263 122.6383 237.6371 14.06943309  3878
QIANFAN-154             
1 69113U 26108K   26164.82503329 -.02090587  00000+0 -13179+1 0  9991
2 69113  89.0112  22.5808 0020004 110.5588 249.7744 14.08392809  3871
QIANFAN-155             
1 69114U 26108L   26164.83018747 -.02073335  00000+0 -13260+1 0  9991
2 69114  89.0103  22.5813 0019322 116.5625 243.7541 14.07567838  3871
QIANFAN-156             
1 69115U 26108M   26163.96413537 -.01951408  00000+0 -11885+1 0  9997
2 69115  89.0116  22.6746 0021312 111.6361 248.7096 14.09991528  3753
QIANFAN-157             
1 69116U 26108N   26164.85246926 -.01902602  00000+0 -11421+1 0  9991
2 69116  89.0107  22.5657 0021894 117.5197 242.8216 14.10677837  3880
QIANFAN-158             
1 69117U 26108P   26165.30050652  .00000092  00000+0  41207-4 0  9990
2 69117  89.0111  22.5221 0016451 120.8438 239.4369 14.13618999  3946
QIANFAN-159             
1 69118U 26108Q   26164.86726216 -.02009509  00000+0 -12085+1 0  9991
2 69118  89.0104  22.5675 0016714 100.0534 260.2538 14.10847637  3884
QIANFAN-160             
1 69119U 26108R   26164.86371994 -.01916835  00000+0 -11751+1 0  9998
2 69119  89.0109  22.5680 0017565 106.3316 253.9802 14.09596494  3881
QIANFAN-161             
1 69120U 26108S   26164.92622339  .00000083  00000+0  34765-4 0  9999
2 69120  89.0115  22.5587 0015540 122.9513 237.3171 14.16181151  3894
QIANFAN-162             
1 69121U 26108T   26164.85099930 -.01773185  00000+0 -10533+1 0  9993
2 69121  89.0108  22.5660 0021484 121.5380 238.7908 14.11632797  3884
SMILE                   
1 69123U 26109A   26144.65318427 -.00001976  00000+0 -42379-3 0  9994
2 69123  70.0007 229.2745 0009123 259.5159 100.4951 14.57062785   802
STARLINK-37726          
1 69124U 26110A   26165.26195320  .00036617  00000+0  67124-3 0  9995
2 69124  97.2836   1.4532 0001643 103.0984 257.0451 15.49212261  5140
STARLINK-37722          
1 69125U 26110B   26165.06476570  .00055629  00000+0  10165-2 0  9999
2 69125  97.2829   1.4149 0001409  84.5568 275.5844 15.49211291  5129
STARLINK-37715          
1 69126U 26110C   26165.25002315 -.00020014  00000+0 -61946-3 0  9999
2 69126  97.2842   1.6527 0001784  91.1153 340.6109 15.33432203  5182
